OBJECT_NAME,OBJECT_ID,EPOCH,MEAN_MOTION,ECCENTRICITY,INCLINATION,RA_OF_ASC_NODE,ARG_OF_PERICENTER,MEAN_ANOMALY,EPHEMERIS_TYPE,CLASSIFICATION_TYPE,NORAD_CAT_ID,ELEMENT_SET_NO,REV_AT_EPOCH,BSTAR,MEAN_MOTION_DOT,MEAN_MOTION_DDOT
STARLINK-37683,2026-123Q,2026-06-17T12:00:02.998944,15.78147436,.0001087,53.1588,239.7545,82.9063,219.1321,0,U,69367,999,320,-.12665E-1,-.1921358E-1,0
STARLINK-37687,2026-123R,2026-06-17T12:00:02.998944,15.80866325,.0000962,53.1583,239.6990,86.7989,242.2528,0,U,69368,999,320,.12312E-3,.23659E-3,0
STARLINK-37631,2026-123S,2026-06-17T12:00:02.998944,15.80941002,.0001268,53.1583,239.7084,86.7864,237.7337,0,U,69369,999,325,-.46823E-3,-.9242E-3,0
STARLINK-37673,2026-123T,2026-06-17T12:00:02.998944,15.80919502,.0001282,53.1579,239.7032,73.1394,253.8640,0,U,69370,999,325,-.3665E-3,-.72587E-3,0
STARLINK-37645,2026-123U,2026-06-17T12:00:02.998944,15.80857363,.000089,53.1577,239.7249,78.2539,238.0415,0,U,69371,999,325,.25134E-3,.49155E-3,0
STARLINK-37688,2026-123V,2026-06-17T12:00:02.998944,15.80821992,.0000988,53.1576,239.6938,85.6831,245.3215,0,U,69372,999,325,.42794E-3,.84392E-3,0
STARLINK-37685,2026-123W,2026-06-17T12:00:02.998944,15.80865647,.0001086,53.1576,239.6878,85.5633,248.2982,0,U,69373,999,325,.11744E-3,.22533E-3,0
STARLINK-37632,2026-123X,2026-06-17T12:00:02.998944,15.80909189,.0001084,53.1575,239.6792,75.1301,262.9312,0,U,69374,999,320,-.31891E-3,-.63287E-3,0
STARLINK-37454,2026-123Y,2026-06-17T12:00:02.998944,15.80866356,.0001016,53.1575,239.6659,82.9193,261.4046,0,U,69375,999,334,.14032E-3,.27074E-3,0
STARLINK-37485,2026-123Z,2026-06-17T12:00:02.998944,15.80853641,.0001049,53.1575,239.6570,86.4339,262.0999,0,U,69376,999,334,.24396E-3,.47675E-3,0
STARLINK-37439,2026-123AA,2026-06-17T12:00:02.998944,15.80897973,.0001412,53.1572,239.5727,87.0626,302.0050,0,U,69377,999,320,-.3087E-3,-.61269E-3,0
STARLINK-37376,2026-123AB,2026-06-17T12:00:02.998944,15.79826544,.000085,53.1584,239.6040,61.8911,312.1129,0,U,69378,999,334,-.12016E-1,-.1962104E-1,0
STARLINK-37383,2026-123AC,2026-06-17T12:00:02.998944,15.80850512,.0001081,53.1574,239.5297,76.6920,332.4879,0,U,69379,999,334,.27226E-3,.53312E-3,0
STARLINK-37411,2026-123AD,2026-06-17T12:00:02.998944,15.80842135,.0001117,53.1573,239.5878,87.1214,294.2513,0,U,69380,999,334,.14621E-3,.28211E-3,0
STARLINK-37427,2026-123AE,2026-06-17T12:00:02.998944,15.80770724,.000116,53.1575,239.5395,89.9193,314.7501,0,U,69381,999,325,.3182E-3,.62262E-3,0
QIANFAN-165,2026-124A,2026-06-17T12:57:01.117728,14.16012316,.0002984,88.9984,2.0003,117.2695,242.8797,0,U,69382,999,186,.27627E-4,.69E-6,0
QIANFAN-166,2026-124B,2026-06-17T12:50:13.653600,14.17059397,.0002657,88.9983,1.9997,106.9408,253.2072,0,U,69383,999,186,.25405E-4,.65E-6,0
QIANFAN-167,2026-124C,2026-06-17T11:09:03.606912,14.17418941,.0001946,88.9983,2.0075,163.5845,196.5407,0,U,69384,999,185,.25773E-4,.66E-6,0
QIANFAN-168,2026-124D,2026-06-17T12:44:50.039808,14.17872848,.0003098,88.9982,1.9991,130.2826,229.8634,0,U,69385,999,186,.24149E-4,.64E-6,0
QIANFAN-169,2026-124E,2026-06-17T12:41:16.059840,14.18286408,.0003151,88.9982,1.9986,149.8319,210.3052,0,U,69386,999,186,.23751E-4,.63E-6,0
QIANFAN-170,2026-124F,2026-06-17T12:37:12.969120,14.19183359,.0003056,88.9983,1.9982,124.8007,235.3470,0,U,69387,999,186,.23473E-4,.64E-6,0
QIANFAN-171,2026-124G,2026-06-17T12:32:40.331328,14.20067435,.0001941,88.9983,1.9977,176.9063,183.2139,0,U,69388,999,186,.23711E-4,.65E-6,0
QIANFAN-172,2026-124H,2026-06-17T12:34:27.609024,14.19638265,.0002339,88.9983,1.9979,149.8777,210.2548,0,U,69389,999,186,.23504E-4,.64E-6,0
QIANFAN-173,2026-124J,2026-06-17T12:30:38.500416,14.20509512,.0002691,88.9983,1.9975,139.7713,220.3676,0,U,69390,999,186,.23896E-4,.66E-6,0
QIANFAN-174,2026-124K,2026-06-17T05:40:31.844352,14.21095933,.0002507,88.9981,2.0294,144.4339,215.7019,0,U,69391,999,182,.2519E-4,.69E-6,0
QIANFAN-175,2026-124L,2026-06-17T02:17:15.756000,14.21359620,.0003586,88.9963,2.0447,165.6011,194.5283,0,U,69392,999,180,.25728E-4,.71E-6,0
QIANFAN-176,2026-124M,2026-06-16T21:11:02.299200,14.22887406,.0002134,88.9986,2.0688,171.6133,188.5095,0,U,69393,999,177,.27253E-4,.76E-6,0
QIANFAN-177,2026-124N,2026-06-17T08:57:39.892896,14.23471928,.0003338,88.9983,2.0125,148.4264,211.7128,0,U,69394,999,184,.26193E-4,.74E-6,0
QIANFAN-178,2026-124P,2026-06-17T07:17:22.314336,14.23137501,.0002659,88.9983,2.0207,150.7099,209.4242,0,U,69395,999,183,.26216E-4,.74E-6,0
QIANFAN-179,2026-124Q,2026-06-17T10:36:49.772736,14.23807523,.0002722,88.9983,2.0041,155.2718,204.8605,0,U,69396,999,185,.26334E-4,.75E-6,0
QIANFAN-180,2026-124R,2026-06-17T12:17:25.954080,14.24071473,.0003503,88.9983,1.9960,168.2121,191.9154,0,U,69397,999,186,.25562E-4,.73E-6,0
