STARLINK-37683          
1 69367U 26123Q   26168.50003471 -.01921358  00000+0 -12665-1 0  9999
2 69367  53.1588 239.7545 0001087  82.9063 219.1321 15.78147436  3202
STARLINK-37687          
1 69368U 26123R   26168.50003471  .00023659  00000+0  12312-3 0  9995
2 69368  53.1583 239.6990 0000962  86.7989 242.2528 15.80866325  3205
STARLINK-37631          
1 69369U 26123S   26168.50003471 -.00092420  00000+0 -46823-3 0  9994
2 69369  53.1583 239.7084 0001268  86.7864 237.7337 15.80941002  3251
STARLINK-37673          
1 69370U 26123T   26168.50003471 -.00072587  00000+0 -36650-3 0  9995
2 69370  53.1579 239.7032 0001282  73.1394 253.8640 15.80919502  3251
STARLINK-37645          
1 69371U 26123U   26168.50003471  .00049155  00000+0  25134-3 0  9994
2 69371  53.1577 239.7249 0000890  78.2539 238.0415 15.80857363  3252
STARLINK-37688          
1 69372U 26123V   26168.50003471  .00084392  00000+0  42794-3 0  9998
2 69372  53.1576 239.6938 0000988  85.6831 245.3215 15.80821992  3259
STARLINK-37685          
1 69373U 26123W   26168.50003471  .00022533  00000+0  11744-3 0  9999
2 69373  53.1576 239.6878 0001086  85.5633 248.2982 15.80865647  3250
STARLINK-37632          
1 69374U 26123X   26168.50003471 -.00063287  00000+0 -31891-3 0  9998
2 69374  53.1575 239.6792 0001084  75.1301 262.9312 15.80909189  3205
STARLINK-37454          
1 69375U 26123Y   26168.50003471  .00027074  00000+0  14032-3 0  9999
2 69375  53.1575 239.6659 0001016  82.9193 261.4046 15.80866356  3349
STARLINK-37485          
1 69376U 26123Z   26168.50003471  .00047675  00000+0  24396-3 0  9993
2 69376  53.1575 239.6570 0001049  86.4339 262.0999 15.80853641  3346
STARLINK-37439          
1 69377U 26123AA  26168.50003471 -.00061269  00000+0 -30870-3 0  9995
2 69377  53.1572 239.5727 0001412  87.0626 302.0050 15.80897973  3201
STARLINK-37376          
1 69378U 26123AB  26168.50003471 -.01962104  00000+0 -12016-1 0  9995
2 69378  53.1584 239.6040 0000850  61.8911 312.1129 15.79826544  3344
STARLINK-37383          
1 69379U 26123AC  26168.50003471  .00053312  00000+0  27226-3 0  9996
2 69379  53.1574 239.5297 0001081  76.6920 332.4879 15.80850512  3349
STARLINK-37411          
1 69380U 26123AD  26168.50003471  .00028211  00000+0  14621-3 0  9993
2 69380  53.1573 239.5878 0001117  87.1214 294.2513 15.80842135  3340
STARLINK-37427          
1 69381U 26123AE  26168.50003471  .00062262  00000+0  31820-3 0  9998
2 69381  53.1575 239.5395 0001160  89.9193 314.7501 15.80770724  3250
QIANFAN-165             
1 69382U 26124A   26168.53959627  .00000069  00000+0  27627-4 0  9994
2 69382  88.9984   2.0003 0002984 117.2695 242.8797 14.16012316  1864
QIANFAN-166             
1 69383U 26124B   26168.53488025  .00000065  00000+0  25405-4 0  9992
2 69383  88.9983   1.9997 0002657 106.9408 253.2072 14.17059397  1861
QIANFAN-167             
1 69384U 26124C   26168.46462508  .00000066  00000+0  25773-4 0  9992
2 69384  88.9983   2.0075 0001946 163.5845 196.5407 14.17418941  1859
QIANFAN-168             
1 69385U 26124D   26168.53113472  .00000064  00000+0  24149-4 0  9998
2 69385  88.9982   1.9991 0003098 130.2826 229.8634 14.17872848  1867
QIANFAN-169             
1 69386U 26124E   26168.52865810  .00000063  00000+0  23751-4 0  9995
2 69386  88.9982   1.9986 0003151 149.8319 210.3052 14.18286408  1866
QIANFAN-170             
1 69387U 26124F   26168.52584455  .00000064  00000+0  23473-4 0  9991
2 69387  88.9983   1.9982 0003056 124.8007 235.3470 14.19183359  1868
QIANFAN-171             
1 69388U 26124G   26168.52268902  .00000065  00000+0  23711-4 0  9994
2 69388  88.9983   1.9977 0001941 176.9063 183.2139 14.20067435  1865
QIANFAN-172             
1 69389U 26124H   26168.52393066  .00000064  00000+0  23504-4 0  9994
2 69389  88.9983   1.9979 0002339 149.8777 210.2548 14.19638265  1869
QIANFAN-173             
1 69390U 26124J   26168.52127894  .00000066  00000+0  23896-4 0  9996
2 69390  88.9983   1.9975 0002691 139.7713 220.3676 14.20509512  1864
QIANFAN-174             
1 69391U 26124K   26168.23647968  .00000069  00000+0  25190-4 0  9996
2 69391  88.9981   2.0294 0002507 144.4339 215.7019 14.21095933  1825
QIANFAN-175             
1 69392U 26124L   26168.09532125  .00000071  00000+0  25728-4 0  9999
2 69392  88.9963   2.0447 0003586 165.6011 194.5283 14.21359620  1807
QIANFAN-176             
1 69393U 26124M   26167.88266550  .00000076  00000+0  27253-4 0  9992
2 69393  88.9986   2.0688 0002134 171.6133 188.5095 14.22887406  1779
QIANFAN-177             
1 69394U 26124N   26168.37337839  .00000074  00000+0  26193-4 0  9997
2 69394  88.9983   2.0125 0003338 148.4264 211.7128 14.23471928  1840
QIANFAN-178             
1 69395U 26124P   26168.30373049  .00000074  00000+0  26216-4 0  9990
2 69395  88.9983   2.0207 0002659 150.7099 209.4242 14.23137501  1835
QIANFAN-179             
1 69396U 26124Q   26168.44224274  .00000075  00000+0  26334-4 0  9993
2 69396  88.9983   2.0041 0002722 155.2718 204.8605 14.23807523  1853
QIANFAN-180             
1 69397U 26124R   26168.51210595  .00000073  00000+0  25562-4 0  9993
2 69397  88.9983   1.9960 0003503 168.2121 191.9154 14.24071473  1866
